[{"OBJECT_NAME":"MONITOR-3 (RS58S)","OBJECT_ID":"2023-091Q","EPOCH":"2026-03-09T23:24:02.583360","MEAN_MOTION":15.25747617,"ECCENTRICITY":0.0013676,"INCLINATION":97.5199,"RA_OF_ASC_NODE":131.7909,"ARG_OF_PERICENTER":91.0881,"MEAN_ANOMALY":269.1924,"EPHEMERIS_TYPE":0,"CLASSIFICATION_TYPE":"U","NORAD_CAT_ID":57180,"ELEMENT_SET_NO":999,"REV_AT_EPOCH":14915,"BSTAR":0.00054974842,"MEAN_MOTION_DOT":0.00014004,"MEAN_MOTION_DDOT":0},{"OBJECT_NAME":"OBJECT AS","OBJECT_ID":"2025-313AS","EPOCH":"2026-03-09T21:37:48.750816","MEAN_MOTION":15.22046455,"ECCENTRICITY":0.00110673,"INCLINATION":97.3991,"RA_OF_ASC_NODE":145.2294,"ARG_OF_PERICENTER":345.8413,"MEAN_ANOMALY":14.2511,"EPHEMERIS_TYPE":0,"CLASSIFICATION_TYPE":"U","NORAD_CAT_ID":67288,"ELEMENT_SET_NO":999,"REV_AT_EPOCH":1085,"BSTAR":0.00031771512,"MEAN_MOTION_DOT":7.207e-5,"MEAN_MOTION_DDOT":0}]
